{
  "type": "FeatureCollection",
  "features": [
    {
      "type": "Feature",
      "properties": {
        "norad_id": 66904,
        "name": "STARLINK-36059",
        "group": "last-30-days",
        "lat": -17.600043100940226,
        "lon": -130.1389106866582,
        "alt_km": 350.03402637451654,
        "timestamp": "2025-12-20T05:41:48.744031+00:00",
        "meta_object_name": "STARLINK-36059",
        "meta_object_id": "2025-283AC",
        "meta_epoch": "2025-12-19T22:00:01.999584",
        "meta_mean_motion": 15.74190572,
        "meta_eccentricity": 6.881e-05,
        "meta_inclination": 53.1574,
        "meta_ra_of_asc_node": 37.6932,
        "meta_arg_of_pericenter": 88.5636,
        "meta_mean_anomaly": 95.1687,
        "meta_ephemeris_type": 0,
        "meta_classification_type": "U",
        "meta_norad_cat_id": 66904,
        "meta_element_set_no": 999,
        "meta_rev_at_epoch": 358,
        "meta_bstar": -0.00015743822,
        "meta_mean_motion_dot": -0.00023622,
        "meta_mean_motion_ddot": 0,
        "tle_line1": "1 66904U 25283AC  25353.91668981 -.00023622  00000+0 -15744-3 0  9991",
        "tle_line2": "2 66904  53.1574  37.6932 0000688  88.5636  95.1687 15.74190572  3583"
      },
      "geometry": {
        "type": "Point",
        "coordinates": [
          -130.1389106866582,
          -17.600043100940226
        ]
      }
    },
    {
      "type": "Feature",
      "properties": {
        "norad_id": 66905,
        "name": "STARLINK-36075",
        "group": "last-30-days",
        "lat": -19.088962424159327,
        "lon": -128.86267525502768,
        "alt_km": 350.2211334592612,
        "timestamp": "2025-12-20T05:41:48.744043+00:00",
        "meta_object_name": "STARLINK-36075",
        "meta_object_id": "2025-283AD",
        "meta_epoch": "2025-12-19T22:00:01.999584",
        "meta_mean_motion": 15.74205541,
        "meta_eccentricity": 8.683e-05,
        "meta_inclination": 53.1572,
        "meta_ra_of_asc_node": 37.6899,
        "meta_arg_of_pericenter": 89.0253,
        "meta_mean_anomaly": 96.6177,
        "meta_ephemeris_type": 0,
        "meta_classification_type": "U",
        "meta_norad_cat_id": 66905,
        "meta_element_set_no": 999,
        "meta_rev_at_epoch": 358,
        "meta_bstar": -0.00029130339,
        "meta_mean_motion_dot": -0.00043103,
        "meta_mean_motion_ddot": 0,
        "tle_line1": "1 66905U 25283AD  25353.91668981 -.00043103  00000+0 -29130-3 0  9992",
        "tle_line2": "2 66905  53.1572  37.6899 0000868  89.0253  96.6177 15.74205541  3588"
      },
      "geometry": {
        "type": "Point",
        "coordinates": [
          -128.86267525502768,
          -19.088962424159327
        ]
      }
    },
    {
      "type": "Feature",
      "properties": {
        "norad_id": 66906,
        "name": "1998-067XS",
        "group": "last-30-days",
        "lat": -3.0200899689107734,
        "lon": -72.38071066033119,
        "alt_km": 413.95094574505856,
        "timestamp": "2025-12-20T05:41:48.744053+00:00",
        "meta_object_name": "1998-067XS",
        "meta_object_id": "1998-067XS",
        "meta_epoch": "2025-12-19T19:37:45.032448",
        "meta_mean_motion": 15.50933488,
        "meta_eccentricity": 0.00029661,
        "meta_inclination": 51.6311,
        "meta_ra_of_asc_node": 107.3061,
        "meta_arg_of_pericenter": 238.2809,
        "meta_mean_anomaly": 121.7891,
        "meta_ephemeris_type": 0,
        "meta_classification_type": "U",
        "meta_norad_cat_id": 66906,
        "meta_element_set_no": 999,
        "meta_rev_at_epoch": 271,
        "meta_bstar": 0.00034986922,
        "meta_mean_motion_dot": 0.00020233,
        "meta_mean_motion_ddot": 0,
        "tle_line1": "1 66906U 98067XS  25353.81788232  .00020233  00000+0  34987-3 0  9997",
        "tle_line2": "2 66906  51.6311 107.3061 0002966 238.2809 121.7891 15.50933488  2714"
      },
      "geometry": {
        "type": "Point",
        "coordinates": [
          -72.38071066033119,
          -3.0200899689107734
        ]
      }
    },
    {
      "type": "Feature",
      "properties": {
        "norad_id": 66907,
        "name": "1998-067XT",
        "group": "last-30-days",
        "lat": -36.9276102672395,
        "lon": -38.32872196860954,
        "alt_km": 411.8781889889369,
        "timestamp": "2025-12-20T05:41:48.744064+00:00",
        "meta_object_name": "1998-067XT",
        "meta_object_id": "1998-067XT",
        "meta_epoch": "2025-12-19T11:42:50.767776",
        "meta_mean_motion": 15.52255247,
        "meta_eccentricity": 0.0003998,
        "meta_inclination": 51.6306,
        "meta_ra_of_asc_node": 108.8528,
        "meta_arg_of_pericenter": 265.7173,
        "meta_mean_anomaly": 94.336,
        "meta_ephemeris_type": 0,
        "meta_classification_type": "U",
        "meta_norad_cat_id": 66907,
        "meta_element_set_no": 999,
        "meta_rev_at_epoch": 266,
        "meta_bstar": 0.00077339,
        "meta_mean_motion_dot": 0.00047666,
        "meta_mean_motion_ddot": 0,
        "tle_line1": "1 66907U 98067XT  25353.48808759  .00047666  00000+0  77339-3 0  9995",
        "tle_line2": "2 66907  51.6306 108.8528 0003998 265.7173  94.3360 15.52255247  2660"
      },
      "geometry": {
        "type": "Point",
        "coordinates": [
          -38.32872196860954,
          -36.9276102672395
        ]
      }
    },
    {
      "type": "Feature",
      "properties": {
        "norad_id": 66908,
        "name": "1998-067XU",
        "group": "last-30-days",
        "lat": -39.60903903549483,
        "lon": -33.9165646798729,
        "alt_km": 411.50965393313436,
        "timestamp": "2025-12-20T05:41:48.744074+00:00",
        "meta_object_name": "1998-067XU",
        "meta_object_id": "1998-067XU",
        "meta_epoch": "2025-12-18T14:03:56.443680",
        "meta_mean_motion": 15.52259493,
        "meta_eccentricity": 0.00039838,
        "meta_inclination": 51.6306,
        "meta_ra_of_asc_node": 113.3296,
        "meta_arg_of_pericenter": 260.0245,
        "meta_mean_anomaly": 100.0295,
        "meta_ephemeris_type": 0,
        "meta_classification_type": "U",
        "meta_norad_cat_id": 66908,
        "meta_element_set_no": 999,
        "meta_rev_at_epoch": 252,
        "meta_bstar": 0.00087908108,
        "meta_mean_motion_dot": 0.00054298,
        "meta_mean_motion_ddot": 0,
        "tle_line1": "1 66908U 98067XU  25352.58606995  .00054298  00000+0  87908-3 0  9996",
        "tle_line2": "2 66908  51.6306 113.3296 0003983 260.0245 100.0295 15.52259493  2520"
      },
      "geometry": {
        "type": "Point",
        "coordinates": [
          -33.9165646798729,
          -39.60903903549483
        ]
      }
    },
    {
      "type": "Feature",
      "properties": {
        "norad_id": 66909,
        "name": "SILVERSAT",
        "group": "last-30-days",
        "lat": -42.735720810723464,
        "lon": -27.838175575946792,
        "alt_km": 411.2826287533635,
        "timestamp": "2025-12-20T05:41:48.744090+00:00",
        "meta_object_name": "SILVERSAT",
        "meta_object_id": "1998-067XV",
        "meta_epoch": "2025-12-19T13:13:09.424128",
        "meta_mean_motion": 15.5251652,
        "meta_eccentricity": 0.0003839,
        "meta_inclination": 51.6306,
        "meta_ra_of_asc_node": 108.5226,
        "meta_arg_of_pericenter": 268.696,
        "meta_mean_anomaly": 91.359,
        "meta_ephemeris_type": 0,
        "meta_classification_type": "U",
        "meta_norad_cat_id": 66909,
        "meta_element_set_no": 999,
        "meta_rev_at_epoch": 267,
        "meta_bstar": 0.00079912,
        "meta_mean_motion_dot": 0.00049748,
        "meta_mean_motion_ddot": 0,
        "tle_line1": "1 66909U 98067XV  25353.55080352  .00049748  00000+0  79912-3 0  9998",
        "tle_line2": "2 66909  51.6306 108.5226 0003839 268.6960  91.3590 15.52516520  2671"
      },
      "geometry": {
        "type": "Point",
        "coordinates": [
          -27.838175575946792,
          -42.735720810723464
        ]
      }
    },
    {
      "type": "Feature",
      "properties": {
        "norad_id": 66910,
        "name": "1998-067XW",
        "group": "last-30-days",
        "lat": -47.42963708105958,
        "lon": -15.31624990250974,
        "alt_km": 410.70731722654637,
        "timestamp": "2025-12-20T05:41:48.744100+00:00",
        "meta_object_name": "1998-067XW",
        "meta_object_id": "1998-067XW",
        "meta_epoch": "2025-12-19T13:10:35.176800",
        "meta_mean_motion": 15.525263,
        "meta_eccentricity": 0.0004382,
        "meta_inclination": 51.6305,
        "meta_ra_of_asc_node": 108.5102,
        "meta_arg_of_pericenter": 243.3936,
        "meta_mean_anomaly": 116.6605,
        "meta_ephemeris_type": 0,
        "meta_classification_type": "U",
        "meta_norad_cat_id": 66910,
        "meta_element_set_no": 999,
        "meta_rev_at_epoch": 267,
        "meta_bstar": 0.00069409,
        "meta_mean_motion_dot": 0.0004313,
        "meta_mean_motion_ddot": 0,
        "tle_line1": "1 66910U 98067XW  25353.54901825  .00043130  00000+0  69409-3 0  9995",
        "tle_line2": "2 66910  51.6305 108.5102 0004382 243.3936 116.6605 15.52526300  2677"
      },
      "geometry": {
        "type": "Point",
        "coordinates": [
          -15.31624990250974,
          -47.42963708105958
        ]
      }
    }
  ]
}